{"type": "FeatureCollection", "features": [ {"type": "Feature", "properties": {"norad_id": 33153, "name": "INTELSAT 25 (IS-25)", "group": "intelsat", "lat": 1.0457732736723817, "lon": -125.54478379586064, "alt_km": 35768.883201422155, "timestamp": "2025-12-23T11:34:47.849260+00:00", "meta": {"OBJECT_NAME": "INTELSAT 25 (IS-25)", "OBJECT_ID": "2008-034A", "EPOCH": "2025-12-23T02:42:38.784096", "MEAN_MOTION": 1.00272798, "ECCENTRICITY": 0.0004838, "INCLINATION": 2.2528, "RA_OF_ASC_NODE": 82.5389, "ARG_OF_PERICENTER": 186.7554, "MEAN_ANOMALY": 191.7745, "EPHEMERIS_TYPE": 0, "CLASSIFICATION_TYPE": "U", "NORAD_CAT_ID": 33153, "ELEMENT_SET_NO": 999, "REV_AT_EPOCH": 6393, "BSTAR": 0, "MEAN_MOTION_DOT": -2.04e-06, "MEAN_MOTION_DDOT": 0}, "tle": {"line1": "1 33153U 08034A   25357.11294889 -.00000204  00000+0  00000+0 0  9999", "line2": "2 33153   2.2528  82.5389 0004838 186.7554 191.7745  1.00272798 63931"}}, "geometry": {"type": "Point", "coordinates": [-125.54478379586064, 1.0457732736723817]}}, {"type": "Feature", "properties": {"norad_id": 33376, "name": "GALAXY 19 (G-19)", "group": "intelsat", "lat": -0.02994508221458931, "lon": 168.9314569945878, "alt_km": 35790.247310338644, "timestamp": "2025-12-23T11:34:47.849271+00:00", "meta": {"OBJECT_NAME": "GALAXY 19 (G-19)", "OBJECT_ID": "2008-045A", "EPOCH": "2025-12-23T01:58:25.898016", "MEAN_MOTION": 1.00270998, "ECCENTRICITY": 0.0002616, "INCLINATION": 0.0463, "RA_OF_ASC_NODE": 265.7447, "ARG_OF_PERICENTER": 13.9944, "MEAN_ANOMALY": 104.7424, "EPHEMERIS_TYPE": 0, "CLASSIFICATION_TYPE": "U", "NORAD_CAT_ID": 33376, "ELEMENT_SET_NO": 999, "REV_AT_EPOCH": 6313, "BSTAR": 0, "MEAN_MOTION_DOT": -1.18e-06, "MEAN_MOTION_DDOT": 0}, "tle": {"line1": "1 33376U 08045A   25357.08224419 -.00000118  00000+0  00000+0 0  9990", "line2": "2 33376   0.0463 265.7447 0002616  13.9944 104.7424  1.00270998 63138"}}, "geometry": {"type": "Point", "coordinates": [168.9314569945878, -0.02994508221458931]}}, {"type": "Feature", "properties": {"norad_id": 35493, "name": "FM-5", "group": "intelsat", "lat": -0.015073057080335388, "lon": 179.83017791223713, "alt_km": 35782.66624212936, "timestamp": "2025-12-23T11:34:47.849282+00:00", "meta": {"OBJECT_NAME": "FM-5", "OBJECT_ID": "2009-034A", "EPOCH": "2025-12-23T02:27:02.780064", "MEAN_MOTION": 1.00270398, "ECCENTRICITY": 9.97e-05, "INCLINATION": 0.0238, "RA_OF_ASC_NODE": 288.8139, "ARG_OF_PERICENTER": 227.3607, "MEAN_ANOMALY": 246.3469, "EPHEMERIS_TYPE": 0, "CLASSIFICATION_TYPE": "U", "NORAD_CAT_ID": 35493, "ELEMENT_SET_NO": 999, "REV_AT_EPOCH": 4487, "BSTAR": 0, "MEAN_MOTION_DOT": -1.79e-06, "MEAN_MOTION_DDOT": 0}, "tle": {"line1": "1 35493U 09034A   25357.10211551 -.00000179  00000+0  00000+0 0  9994", "line2": "2 35493   0.0238 288.8139 0000997 227.3607 246.3469  1.00270398 44877"}}, "geometry": {"type": "Point", "coordinates": [179.83017791223713, -0.015073057080335388]}}, {"type": "Feature", "properties": {"norad_id": 36097, "name": "INTELSAT 14 (IS-14)", "group": "intelsat", "lat": -0.023145733907552216, "lon": -139.06681260211872, "alt_km": 35781.84132579329, "timestamp": "2025-12-23T11:34:47.849292+00:00", "meta": {"OBJECT_NAME": "INTELSAT 14 (IS-14)", "OBJECT_ID": "2009-064A", "EPOCH": "2025-12-23T02:38:46.654944", "MEAN_MOTION": 1.00269732, "ECCENTRICITY": 0.0002549, "INCLINATION": 0.0118, "RA_OF_ASC_NODE": 353.3208, "ARG_OF_PERICENTER": 290.956, "MEAN_ANOMALY": 162.3203, "EPHEMERIS_TYPE": 0, "CLASSIFICATION_TYPE": "U", "NORAD_CAT_ID": 36097, "ELEMENT_SET_NO": 999, "REV_AT_EPOCH": 5884, "BSTAR": 0, "MEAN_MOTION_DOT": -2.52e-06, "MEAN_MOTION_DDOT": 0}, "tle": {"line1": "1 36097U 09064A   25357.11026221 -.00000252  00000+0  00000+0 0  9999", "line2": "2 36097   0.0118 353.3208 0002549 290.9560 162.3203  1.00269732 58844"}}, "geometry": {"type": "Point", "coordinates": [-139.06681260211872, -0.023145733907552216]}}, {"type": "Feature", "properties": {"norad_id": 36106, "name": "INTELSAT 15 (IS-15)", "group": "intelsat", "lat": -0.012483788048104181, "lon": -8.850623089635288, "alt_km": 35782.65931281668, "timestamp": "2025-12-23T11:34:47.849303+00:00", "meta": {"OBJECT_NAME": "INTELSAT 15 (IS-15)", "OBJECT_ID": "2009-067A", "EPOCH": "2025-12-22T22:07:47.916768", "MEAN_MOTION": 1.00271269, "ECCENTRICITY": 0.000223, "INCLINATION": 0.0177, "RA_OF_ASC_NODE": 8.1154, "ARG_OF_PERICENTER": 275.52, "MEAN_ANOMALY": 225.1959, "EPHEMERIS_TYPE": 0, "CLASSIFICATION_TYPE": "U", "NORAD_CAT_ID": 36106, "ELEMENT_SET_NO": 999, "REV_AT_EPOCH": 3946, "BSTAR": 0, "MEAN_MOTION_DOT": -1.64e-06, "MEAN_MOTION_DDOT": 0}, "tle": {"line1": "1 36106U 09067A   25356.92208237 -.00000164  00000+0  00000+0 0  9992", "line2": "2 36106   0.0177   8.1154 0002230 275.5200 225.1959  1.00271269 39463"}}, "geometry": {"type": "Point", "coordinates": [-8.850623089635288, -0.012483788048104181]}}, {"type": "Feature", "properties": {"norad_id": 36131, "name": "DIRECTV 12", "group": "intelsat", "lat": 0.011433553773701127, "lon": 163.2509119062766, "alt_km": 35788.29576509395, "timestamp": "2025-12-23T11:34:47.849314+00:00", "meta": {"OBJECT_NAME": "DIRECTV 12", "OBJECT_ID": "2009-075A", "EPOCH": "2025-12-23T03:20:33.607104", "MEAN_MOTION": 1.00270962, "ECCENTRICITY": 4.71e-05, "INCLINATION": 0.0146, "RA_OF_ASC_NODE": 102.798, "ARG_OF_PERICENTER": 240.9424, "MEAN_ANOMALY": 55.6205, "EPHEMERIS_TYPE": 0, "CLASSIFICATION_TYPE": "U", "NORAD_CAT_ID": 36131, "ELEMENT_SET_NO": 999, "REV_AT_EPOCH": 4478, "BSTAR": 0, "MEAN_MOTION_DOT": -8.2e-07, "MEAN_MOTION_DDOT": 0}, "tle": {"line1": "1 36131U 09075A   25357.13927786 -.00000082  00000+0  00000+0 0  9999", "line2": "2 36131   0.0146 102.7980 0000471 240.9424  55.6205  1.00270962 44784"}}, "geometry": {"type": "Point", "coordinates": [163.2509119062766, 0.011433553773701127]}}, {"type": "Feature", "properties": {"norad_id": 36397, "name": "INTELSAT 16 (IS-16)", "group": "intelsat", "lat": -0.012790975165827029, "lon": -170.25399848634288, "alt_km": 35785.562333467125, "timestamp": "2025-12-23T11:34:47.849325+00:00", "meta": {"OBJECT_NAME": "INTELSAT 16 (IS-16)", "OBJECT_ID": "2010-006A", "EPOCH": "2025-12-23T03:25:52.919040", "MEAN_MOTION": 1.00270396, "ECCENTRICITY": 0.000185, "INCLINATION": 0.0127, "RA_OF_ASC_NODE": 322.8693, "ARG_OF_PERICENTER": 309.952, "MEAN_ANOMALY": 154.3908, "EPHEMERIS_TYPE": 0, "CLASSIFICATION_TYPE": "U", "NORAD_CAT_ID": 36397, "ELEMENT_SET_NO": 999, "REV_AT_EPOCH": 5788, "BSTAR": 0, "MEAN_MOTION_DOT": -2.23e-06, "MEAN_MOTION_DDOT": 0}, "tle": {"line1": "1 36397U 10006A   25357.14297360 -.00000223  00000+0  00000+0 0  9995", "line2": "2 36397   0.0127 322.8693 0001850 309.9520 154.3908  1.00270396 57881"}}, "geometry": {"type": "Point", "coordinates": [-170.25399848634288, -0.012790975165827029]}}, {"type": "Feature", "properties": {"norad_id": 37185, "name": "XM-5", "group": "intelsat", "lat": -0.04027643136709819, "lon": 150.7763483976739, "alt_km": 35776.71089873099, "timestamp": "2025-12-23T11:34:47.849336+00:00", "meta": {"OBJECT_NAME": "XM-5", "OBJECT_ID": "2010-053A", "EPOCH": "2025-12-23T00:36:02.071872", "MEAN_MOTION": 1.00270944, "ECCENTRICITY": 0.0002282, "INCLINATION": 0.0686, "RA_OF_ASC_NODE": 269.8014, "ARG_OF_PERICENTER": 238.9496, "MEAN_ANOMALY": 196.8907, "EPHEMERIS_TYPE": 0, "CLASSIFICATION_TYPE": "U", "NORAD_CAT_ID": 37185, "ELEMENT_SET_NO": 999, "REV_AT_EPOCH": 5571, "BSTAR": 0, "MEAN_MOTION_DOT": -2e-08, "MEAN_MOTION_DDOT": 0}, "tle": {"line1": "1 37185U 10053A   25357.02502398 -.00000002  00000+0  00000+0 0  9995", "line2": "2 37185   0.0686 269.8014 0002282 238.9496 196.8907  1.00270944 55716"}}, "geometry": {"type": "Point", "coordinates": [150.7763483976739, -0.04027643136709819]}}, {"type": "Feature", "properties": {"norad_id": 37238, "name": "INTELSAT 17 (IS-17)", "group": "intelsat", "lat": -0.002962040081130886, "lon": -28.025331005574067, "alt_km": 35779.20576646512, "timestamp": "2025-12-23T11:34:47.849347+00:00", "meta": {"OBJECT_NAME": "INTELSAT 17 (IS-17)", "OBJECT_ID": "2010-065B", "EPOCH": "2025-12-23T01:27:42.122880", "MEAN_MOTION": 1.00271329, "ECCENTRICITY": 0.0002608, "INCLINATION": 0.0076, "RA_OF_ASC_NODE": 300.1188, "ARG_OF_PERICENTER": 341.1302, "MEAN_ANOMALY": 258.5203, "EPHEMERIS_TYPE": 0, "CLASSIFICATION_TYPE": "U", "NORAD_CAT_ID": 37238, "ELEMENT_SET_NO": 999, "REV_AT_EPOCH": 5148, "BSTAR": 0, "MEAN_MOTION_DOT": 2e-07, "MEAN_MOTION_DDOT": 0}, "tle": {"line1": "1 37238U 10065B   25357.06090420  .00000020  00000+0  00000+0 0  9998", "line2": "2 37238   0.0076 300.1188 0002608 341.1302 258.5203  1.00271329 51487"}}, "geometry": {"type": "Point", "coordinates": [-28.025331005574067, -0.002962040081130886]}}, {"type": "Feature", "properties": {"norad_id": 37392, "name": "INTELSAT 28 (IS-28)", "group": "intelsat", "lat": 0.6737432244330945, "lon": -125.77478017555518, "alt_km": 35774.852160341085, "timestamp": "2025-12-23T11:34:47.849357+00:00", "meta": {"OBJECT_NAME": "INTELSAT 28 (IS-28)", "OBJECT_ID": "2011-016A", "EPOCH": "2025-12-23T02:42:31.295808", "MEAN_MOTION": 1.00268957, "ECCENTRICITY": 0.0003762, "INCLINATION": 1.3497, "RA_OF_ASC_NODE": 84.9442, "ARG_OF_PERICENTER": 190.6388, "MEAN_ANOMALY": 185.239, "EPHEMERIS_TYPE": 0, "CLASSIFICATION_TYPE": "U", "NORAD_CAT_ID": 37392, "ELEMENT_SET_NO": 999, "REV_AT_EPOCH": 5152, "BSTAR": 0, "MEAN_MOTION_DOT": -2.05e-06, "MEAN_MOTION_DDOT": 0}, "tle": {"line1": "1 37392U 11016A   25357.11286222 -.00000205  00000+0  00000+0 0  9995", "line2": "2 37392   1.3497  84.9442 0003762 190.6388 185.2390  1.00268957 51523"}}, "geometry": {"type": "Point", "coordinates": [-125.77478017555518, 0.6737432244330945]}}]}